ARIANE 5 R/B            
1 28499U 04049H   26122.39118161  .00001159  00000+0  13349-3 0  9990
2 28499  98.2692 292.8850 0084131 176.1899 183.9974 14.85369787153763
CZ-2D R/B               
1 28738U 05024B   26122.30860192  .00053200  00000+0  54051-3 0  9998
2 28738  97.3524 139.6087 0005682 154.5964 205.5576 15.65016531148151
ALOS (DAICHI)           
1 28931U 06002A   26122.41689176  .00001216  00000+0  21122-3 0  9996
2 28931  98.1297  78.1395 0002054  97.8890 262.2549 14.69955439 81370
H-2A R/B                
1 28932U 06002B   26122.36717954  .00009214  00000+0  44755-3 0  9990
2 28932  98.2509 274.0881 0052100  59.7454 300.8920 15.17500518102571
RESURS-DK 1             
1 29228U 06021A   26122.35488939  .00002688  00000+0  15785-3 0  9996
2 29228  69.9321  98.1750 0003897 333.6629  26.4338 15.13022320 95643
CZ-4B R/B               
1 29507U 06046C   26122.36185854  .00005018  00000+0  25059-3 0  9999
2 29507  97.5490 167.1140 0034527  82.2266 278.2885 15.17416787 68186
CZ-2C R/B               
1 31114U 07010B   26122.26803159  .00000123  00000+0  75004-4 0  9990
2 31114  98.4044 232.8774 0059875 137.6729 222.9091 14.20264425987327
COSMO-SKYMED 1          
1 31598U 07023A   26122.48183025  .00003669  00000+0  32501-3 0  9999
2 31598  97.8869 313.9577 0001843  94.2772 265.8660 14.96884786 22959
COSMOS 2428             
1 31792U 07029A   26122.33891659 -.00000209  00000+0 -86549-4 0  9995
2 31792  70.9394  90.7327 0008741 216.0221 144.0312 14.12943578971677
SL-16 R/B               
1 31793U 07029B   26122.30628656  .00000267  00000+0  16313-3 0  9991
2 31793  70.9766  59.6750 0002558 268.4396 205.4747 14.14848992972951
KORONAS-FOTON           
1 33504U 09003A   26122.29465946  .00014411  00000+0  30689-3 0  9994
2 33504  82.4321 220.0898 0009323 326.1767  33.8885 15.44755076954013
CZ-2C R/B               
1 37731U 11030B   26122.39144221  .00001036  00000+0  13633-3 0  9993
2 37731  97.8626  78.6184 0052470 173.9638 302.6047 14.81370004798048
H-2A R/B                
1 38341U 12025E   26122.39463647  .00003212  00000+0  29050-3 0  9990
2 38341  98.4801  93.7852 0045332 135.6868 224.7994 14.95474030756247
