[
    {
        "OBJECT_NAME": "ARIANE 5 R/B",
        "OBJECT_ID": "2004-049H",
        "EPOCH": "2026-05-02T09:23:18.091104",
        "MEAN_MOTION": 14.85369787,
        "ECCENTRICITY": 0.0084131,
        "INCLINATION": 98.2692,
        "RA_OF_ASC_NODE": 292.885,
        "ARG_OF_PERICENTER": 176.1899,
        "MEAN_ANOMALY": 183.9974,
        "EPHEMERIS_TYPE": 0,
        "CLASSIFICATION_TYPE": "U",
        "NORAD_CAT_ID": 28499,
        "ELEMENT_SET_NO": 999,
        "REV_AT_EPOCH": 15376,
        "BSTAR": 0.00013349,
        "MEAN_MOTION_DOT": 1.159e-05,
        "MEAN_MOTION_DDOT": 0
    },
    {
        "OBJECT_NAME": "CZ-2D R/B",
        "OBJECT_ID": "2005-024B",
        "EPOCH": "2026-05-02T07:24:23.205888",
        "MEAN_MOTION": 15.65016531,
        "ECCENTRICITY": 0.0005682,
        "INCLINATION": 97.3524,
        "RA_OF_ASC_NODE": 139.6087,
        "ARG_OF_PERICENTER": 154.5964,
        "MEAN_ANOMALY": 205.5576,
        "EPHEMERIS_TYPE": 0,
        "CLASSIFICATION_TYPE": "U",
        "NORAD_CAT_ID": 28738,
        "ELEMENT_SET_NO": 999,
        "REV_AT_EPOCH": 14815,
        "BSTAR": 0.00054051,
        "MEAN_MOTION_DOT": 0.000532,
        "MEAN_MOTION_DDOT": 0
    },
    {
        "OBJECT_NAME": "ALOS (DAICHI)",
        "OBJECT_ID": "2006-002A",
        "EPOCH": "2026-05-02T10:00:19.448064",
        "MEAN_MOTION": 14.69955439,
        "ECCENTRICITY": 0.0002054,
        "INCLINATION": 98.1297,
        "RA_OF_ASC_NODE": 78.1395,
        "ARG_OF_PERICENTER": 97.889,
        "MEAN_ANOMALY": 262.2549,
        "EPHEMERIS_TYPE": 0,
        "CLASSIFICATION_TYPE": "U",
        "NORAD_CAT_ID": 28931,
        "ELEMENT_SET_NO": 999,
        "REV_AT_EPOCH": 8137,
        "BSTAR": 0.00021122,
        "MEAN_MOTION_DOT": 1.216e-05,
        "MEAN_MOTION_DDOT": 0
    },
    {
        "OBJECT_NAME": "H-2A R/B",
        "OBJECT_ID": "2006-002B",
        "EPOCH": "2026-05-02T08:48:44.312256",
        "MEAN_MOTION": 15.17500518,
        "ECCENTRICITY": 0.00521,
        "INCLINATION": 98.2509,
        "RA_OF_ASC_NODE": 274.0881,
        "ARG_OF_PERICENTER": 59.7454,
        "MEAN_ANOMALY": 300.892,
        "EPHEMERIS_TYPE": 0,
        "CLASSIFICATION_TYPE": "U",
        "NORAD_CAT_ID": 28932,
        "ELEMENT_SET_NO": 999,
        "REV_AT_EPOCH": 10257,
        "BSTAR": 0.00044755,
        "MEAN_MOTION_DOT": 9.214e-05,
        "MEAN_MOTION_DDOT": 0
    },
    {
        "OBJECT_NAME": "RESURS-DK 1",
        "OBJECT_ID": "2006-021A",
        "EPOCH": "2026-05-02T08:31:02.443296",
        "MEAN_MOTION": 15.1302232,
        "ECCENTRICITY": 0.0003897,
        "INCLINATION": 69.9321,
        "RA_OF_ASC_NODE": 98.175,
        "ARG_OF_PERICENTER": 333.6629,
        "MEAN_ANOMALY": 26.4338,
        "EPHEMERIS_TYPE": 0,
        "CLASSIFICATION_TYPE": "U",
        "NORAD_CAT_ID": 29228,
        "ELEMENT_SET_NO": 999,
        "REV_AT_EPOCH": 9564,
        "BSTAR": 0.00015785,
        "MEAN_MOTION_DOT": 2.688e-05,
        "MEAN_MOTION_DDOT": 0
    },
    {
        "OBJECT_NAME": "CZ-4B R/B",
        "OBJECT_ID": "2006-046C",
        "EPOCH": "2026-05-02T08:41:04.577856",
        "MEAN_MOTION": 15.17416787,
        "ECCENTRICITY": 0.0034527,
        "INCLINATION": 97.549,
        "RA_OF_ASC_NODE": 167.114,
        "ARG_OF_PERICENTER": 82.2266,
        "MEAN_ANOMALY": 278.2885,
        "EPHEMERIS_TYPE": 0,
        "CLASSIFICATION_TYPE": "U",
        "NORAD_CAT_ID": 29507,
        "ELEMENT_SET_NO": 999,
        "REV_AT_EPOCH": 6818,
        "BSTAR": 0.00025059,
        "MEAN_MOTION_DOT": 5.018e-05,
        "MEAN_MOTION_DDOT": 0
    },
    {
        "OBJECT_NAME": "CZ-2C R/B",
        "OBJECT_ID": "2007-010B",
        "EPOCH": "2026-05-02T06:25:57.929376",
        "MEAN_MOTION": 14.20264425,
        "ECCENTRICITY": 0.0059875,
        "INCLINATION": 98.4044,
        "RA_OF_ASC_NODE": 232.8774,
        "ARG_OF_PERICENTER": 137.6729,
        "MEAN_ANOMALY": 222.9091,
        "EPHEMERIS_TYPE": 0,
        "CLASSIFICATION_TYPE": "U",
        "NORAD_CAT_ID": 31114,
        "ELEMENT_SET_NO": 999,
        "REV_AT_EPOCH": 98732,
        "BSTAR": 7.5004e-05,
        "MEAN_MOTION_DOT": 1.23e-06,
        "MEAN_MOTION_DDOT": 0
    },
    {
        "OBJECT_NAME": "COSMO-SKYMED 1",
        "OBJECT_ID": "2007-023A",
        "EPOCH": "2026-05-02T11:33:50.133600",
        "MEAN_MOTION": 14.96884786,
        "ECCENTRICITY": 0.0001843,
        "INCLINATION": 97.8869,
        "RA_OF_ASC_NODE": 313.9577,
        "ARG_OF_PERICENTER": 94.2772,
        "MEAN_ANOMALY": 265.866,
        "EPHEMERIS_TYPE": 0,
        "CLASSIFICATION_TYPE": "U",
        "NORAD_CAT_ID": 31598,
        "ELEMENT_SET_NO": 999,
        "REV_AT_EPOCH": 2295,
        "BSTAR": 0.00032501,
        "MEAN_MOTION_DOT": 3.669e-05,
        "MEAN_MOTION_DDOT": 0
    },
    {
        "OBJECT_NAME": "COSMOS 2428",
        "OBJECT_ID": "2007-029A",
        "EPOCH": "2026-05-02T08:08:02.393376",
        "MEAN_MOTION": 14.12943578,
        "ECCENTRICITY": 0.0008741,
        "INCLINATION": 70.9394,
        "RA_OF_ASC_NODE": 90.7327,
        "ARG_OF_PERICENTER": 216.0221,
        "MEAN_ANOMALY": 144.0312,
        "EPHEMERIS_TYPE": 0,
        "CLASSIFICATION_TYPE": "U",
        "NORAD_CAT_ID": 31792,
        "ELEMENT_SET_NO": 999,
        "REV_AT_EPOCH": 97167,
        "BSTAR": -8.6549e-05,
        "MEAN_MOTION_DOT": -2.09e-06,
        "MEAN_MOTION_DDOT": 0
    },
    {
        "OBJECT_NAME": "SL-16 R/B",
        "OBJECT_ID": "2007-029B",
        "EPOCH": "2026-05-02T07:21:03.158784",
        "MEAN_MOTION": 14.14848992,
        "ECCENTRICITY": 0.0002558,
        "INCLINATION": 70.9766,
        "RA_OF_ASC_NODE": 59.675,
        "ARG_OF_PERICENTER": 268.4396,
        "MEAN_ANOMALY": 205.4747,
        "EPHEMERIS_TYPE": 0,
        "CLASSIFICATION_TYPE": "U",
        "NORAD_CAT_ID": 31793,
        "ELEMENT_SET_NO": 999,
        "REV_AT_EPOCH": 97295,
        "BSTAR": 0.00016313,
        "MEAN_MOTION_DOT": 2.67e-06,
        "MEAN_MOTION_DDOT": 0
    },
    {
        "OBJECT_NAME": "KORONAS-FOTON",
        "OBJECT_ID": "2009-003A",
        "EPOCH": "2026-05-02T07:04:18.577344",
        "MEAN_MOTION": 15.44755076,
        "ECCENTRICITY": 0.0009323,
        "INCLINATION": 82.4321,
        "RA_OF_ASC_NODE": 220.0898,
        "ARG_OF_PERICENTER": 326.1767,
        "MEAN_ANOMALY": 33.8885,
        "EPHEMERIS_TYPE": 0,
        "CLASSIFICATION_TYPE": "U",
        "NORAD_CAT_ID": 33504,
        "ELEMENT_SET_NO": 999,
        "REV_AT_EPOCH": 95401,
        "BSTAR": 0.00030689,
        "MEAN_MOTION_DOT": 0.00014411,
        "MEAN_MOTION_DDOT": 0
    },
    {
        "OBJECT_NAME": "CZ-2C R/B",
        "OBJECT_ID": "2011-030B",
        "EPOCH": "2026-05-02T09:23:40.606944",
        "MEAN_MOTION": 14.81370004,
        "ECCENTRICITY": 0.005247,
        "INCLINATION": 97.8626,
        "RA_OF_ASC_NODE": 78.6184,
        "ARG_OF_PERICENTER": 173.9638,
        "MEAN_ANOMALY": 302.6047,
        "EPHEMERIS_TYPE": 0,
        "CLASSIFICATION_TYPE": "U",
        "NORAD_CAT_ID": 37731,
        "ELEMENT_SET_NO": 999,
        "REV_AT_EPOCH": 79804,
        "BSTAR": 0.00013633,
        "MEAN_MOTION_DOT": 1.036e-05,
        "MEAN_MOTION_DDOT": 0
    },
    {
        "OBJECT_NAME": "H-2A R/B",
        "OBJECT_ID": "2012-025E",
        "EPOCH": "2026-05-02T09:28:16.591008",
        "MEAN_MOTION": 14.9547403,
        "ECCENTRICITY": 0.0045332,
        "INCLINATION": 98.4801,
        "RA_OF_ASC_NODE": 93.7852,
        "ARG_OF_PERICENTER": 135.6868,
        "MEAN_ANOMALY": 224.7994,
        "EPHEMERIS_TYPE": 0,
        "CLASSIFICATION_TYPE": "U",
        "NORAD_CAT_ID": 38341,
        "ELEMENT_SET_NO": 999,
        "REV_AT_EPOCH": 75624,
        "BSTAR": 0.0002905,
        "MEAN_MOTION_DOT": 3.212e-05,
        "MEAN_MOTION_DDOT": 0
    }
]